[{"OBJECT_NAME":"SL-8 R/B","OBJECT_ID":"1991-006B","EPOCH":"2026-04-05T06:47:32.214336","MEAN_MOTION":13.77498855,"ECCENTRICITY":0.00214066,"INCLINATION":82.9433,"RA_OF_ASC_NODE":150.2735,"ARG_OF_PERICENTER":323.655,"MEAN_ANOMALY":102.8029,"EPHEMERIS_TYPE":0,"CLASSIFICATION_TYPE":"U","NORAD_CAT_ID":21088,"ELEMENT_SET_NO":999,"REV_AT_EPOCH":76773,"BSTAR":0.00010606899,"MEAN_MOTION_DOT":1.21e-6,"MEAN_MOTION_DDOT":0},{"OBJECT_NAME":"OKEAN-3","OBJECT_ID":"1991-039A","EPOCH":"2026-04-05T01:49:55.409664","MEAN_MOTION":15.04972348,"ECCENTRICITY":0.00129074,"INCLINATION":82.515,"RA_OF_ASC_NODE":311.2743,"ARG_OF_PERICENTER":239.2038,"MEAN_ANOMALY":120.7918,"EPHEMERIS_TYPE":0,"CLASSIFICATION_TYPE":"U","NORAD_CAT_ID":21397,"ELEMENT_SET_NO":999,"REV_AT_EPOCH":86900,"BSTAR":0.00030333773,"MEAN_MOTION_DOT":4.334e-5,"MEAN_MOTION_DDOT":0},{"OBJECT_NAME":"COSMOS 2151","OBJECT_ID":"1991-042A","EPOCH":"2026-04-05T07:07:50.218464","MEAN_MOTION":15.0023199,"ECCENTRICITY":0.00116633,"INCLINATION":82.4964,"RA_OF_ASC_NODE":58.0027,"ARG_OF_PERICENTER":337.8762,"MEAN_ANOMALY":22.1957,"EPHEMERIS_TYPE":0,"CLASSIFICATION_TYPE":"U","NORAD_CAT_ID":21422,"ELEMENT_SET_NO":999,"REV_AT_EPOCH":86718,"BSTAR":0.00026881673,"MEAN_MOTION_DOT":3.392e-5,"MEAN_MOTION_DDOT":0},{"OBJECT_NAME":"SL-14 R/B","OBJECT_ID":"1991-042B","EPOCH":"2026-04-05T07:05:01.873248","MEAN_MOTION":14.8185856,"ECCENTRICITY":0.00178297,"INCLINATION":82.4961,"RA_OF_ASC_NODE":195.2405,"ARG_OF_PERICENTER":149.5691,"MEAN_ANOMALY":210.6562,"EPHEMERIS_TYPE":0,"CLASSIFICATION_TYPE":"U","NORAD_CAT_ID":21423,"ELEMENT_SET_NO":999,"REV_AT_EPOCH":85701,"BSTAR":7.9646516e-5,"MEAN_MOTION_DOT":6.55e-6,"MEAN_MOTION_DDOT":0},{"OBJECT_NAME":"ERS-1","OBJECT_ID":"1991-050A","EPOCH":"2026-04-05T07:40:36.422400","MEAN_MOTION":14.39471482,"ECCENTRICITY":0.003296,"INCLINATION":98.7858,"RA_OF_ASC_NODE":114.2217,"ARG_OF_PERICENTER":122.3647,"MEAN_ANOMALY":238.0737,"EPHEMERIS_TYPE":0,"CLASSIFICATION_TYPE":"U","NORAD_CAT_ID":21574,"ELEMENT_SET_NO":999,"REV_AT_EPOCH":81956,"BSTAR":0.00016409812,"MEAN_MOTION_DOT":4.68e-6,"MEAN_MOTION_DDOT":0},{"OBJECT_NAME":"ARIANE 40 R/B","OBJECT_ID":"1991-050F","EPOCH":"2026-04-05T04:03:02.936736","MEAN_MOTION":14.42914528,"ECCENTRICITY":0.00030966,"INCLINATION":98.1957,"RA_OF_ASC_NODE":146.4043,"ARG_OF_PERICENTER":19.0902,"MEAN_ANOMALY":341.0405,"EPHEMERIS_TYPE":0,"CLASSIFICATION_TYPE":"U","NORAD_CAT_ID":21610,"ELEMENT_SET_NO":999,"REV_AT_EPOCH":82281,"BSTAR":0.00014746849,"MEAN_MOTION_DOT":4.51e-6,"MEAN_MOTION_DDOT":0},{"OBJECT_NAME":"INTERCOSMOS 25","OBJECT_ID":"1991-086A","EPOCH":"2026-04-05T01:43:39.756288","MEAN_MOTION":12.12095332,"ECCENTRICITY":0.14862761,"INCLINATION":82.6,"RA_OF_ASC_NODE":294.0566,"ARG_OF_PERICENTER":60.0892,"MEAN_ANOMALY":313.9489,"EPHEMERIS_TYPE":0,"CLASSIFICATION_TYPE":"U","NORAD_CAT_ID":21819,"ELEMENT_SET_NO":999,"REV_AT_EPOCH":49988,"BSTAR":0.00040540811,"MEAN_MOTION_DOT":2.097e-5,"MEAN_MOTION_DDOT":0},{"OBJECT_NAME":"SL-8 R/B","OBJECT_ID":"1992-008B","EPOCH":"2026-04-05T05:07:36.051744","MEAN_MOTION":13.75969911,"ECCENTRICITY":0.00357506,"INCLINATION":82.9244,"RA_OF_ASC_NODE":248.0427,"ARG_OF_PERICENTER":61.8235,"MEAN_ANOMALY":112.2171,"EPHEMERIS_TYPE":0,"CLASSIFICATION_TYPE":"U","NORAD_CAT_ID":21876,"ELEMENT_SET_NO":999,"REV_AT_EPOCH":71306,"BSTAR":1.4532633e-5,"MEAN_MOTION_DOT":3.0e-7,"MEAN_MOTION_DDOT":0},{"OBJECT_NAME":"SL-8 R/B","OBJECT_ID":"1992-020B","EPOCH":"2026-04-05T05:51:39.520224","MEAN_MOTION":13.75550691,"ECCENTRICITY":0.00280896,"INCLINATION":82.929,"RA_OF_ASC_NODE":134.0435,"ARG_OF_PERICENTER":221.3775,"MEAN_ANOMALY":210.5397,"EPHEMERIS_TYPE":0,"CLASSIFICATION_TYPE":"U","NORAD_CAT_ID":21938,"ELEMENT_SET_NO":999,"REV_AT_EPOCH":70478,"BSTAR":-2.40705e-7,"MEAN_MOTION_DOT":1.5e-7,"MEAN_MOTION_DDOT":0},{"OBJECT_NAME":"USA 81","OBJECT_ID":"1992-023A","EPOCH":"2026-04-05T03:14:06.839232","MEAN_MOTION":14.32377099,"ECCENTRICITY":0.00014926,"INCLINATION":85.0038,"RA_OF_ASC_NODE":116.1778,"ARG_OF_PERICENTER":70.7894,"MEAN_ANOMALY":289.346,"EPHEMERIS_TYPE":0,"CLASSIFICATION_TYPE":"U","NORAD_CAT_ID":21949,"ELEMENT_SET_NO":999,"REV_AT_EPOCH":9857,"BSTAR":7.0374325e-5,"MEAN_MOTION_DOT":2.1e-6,"MEAN_MOTION_DDOT":0},{"OBJECT_NAME":"COSMOS 2219","OBJECT_ID":"1992-076A","EPOCH":"2026-04-04T23:26:56.033088","MEAN_MOTION":14.14088606,"ECCENTRICITY":0.00176463,"INCLINATION":71.0606,"RA_OF_ASC_NODE":323.12,"ARG_OF_PERICENTER":167.1102,"MEAN_ANOMALY":193.0475,"EPHEMERIS_TYPE":0,"CLASSIFICATION_TYPE":"U","NORAD_CAT_ID":22219,"ELEMENT_SET_NO":999,"REV_AT_EPOCH":72209,"BSTAR":-5.916546e-5,"MEAN_MOTION_DOT":-1.6e-6,"MEAN_MOTION_DDOT":0},{"OBJECT_NAME":"SL-16 R/B","OBJECT_ID":"1992-076B","EPOCH":"2026-04-05T07:34:39.629280","MEAN_MOTION":14.1686257,"ECCENTRICITY":0.00109686,"INCLINATION":70.9982,"RA_OF_ASC_NODE":132.2897,"ARG_OF_PERICENTER":47.5317,"MEAN_ANOMALY":29.4466,"EPHEMERIS_TYPE":0,"CLASSIFICATION_TYPE":"U","NORAD_CAT_ID":22220,"ELEMENT_SET_NO":999,"REV_AT_EPOCH":72560,"BSTAR":-1.5235973e-5,"MEAN_MOTION_DOT":-7.8e-7,"MEAN_MOTION_DDOT":0},{"OBJECT_NAME":"COSMOS 2221","OBJECT_ID":"1992-080A","EPOCH":"2026-04-05T04:29:05.498016","MEAN_MOTION":14.96325949,"ECCENTRICITY":0.00156731,"INCLINATION":82.5018,"RA_OF_ASC_NODE":253.6909,"ARG_OF_PERICENTER":102.8069,"MEAN_ANOMALY":257.4906,"EPHEMERIS_TYPE":0,"CLASSIFICATION_TYPE":"U","NORAD_CAT_ID":22236,"ELEMENT_SET_NO":999,"REV_AT_EPOCH":78475,"BSTAR":0.00030023176,"MEAN_MOTION_DOT":3.428e-5,"MEAN_MOTION_DDOT":0},{"OBJECT_NAME":"SL-16 R/B","OBJECT_ID":"1992-093B","EPOCH":"2026-04-04T22:59:37.102848","MEAN_MOTION":14.15456107,"ECCENTRICITY":0.00066525,"INCLINATION":71.0219,"RA_OF_ASC_NODE":309.1238,"ARG_OF_PERICENTER":268.5525,"MEAN_ANOMALY":91.4836,"EPHEMERIS_TYPE":0,"CLASSIFICATION_TYPE":"U","NORAD_CAT_ID":22285,"ELEMENT_SET_NO":999,"REV_AT_EPOCH":71687,"BSTAR":-2.516888e-5,"MEAN_MOTION_DOT":-9.7e-7,"MEAN_MOTION_DDOT":0},{"OBJECT_NAME":"COSMOS 2228","OBJECT_ID":"1992-094A","EPOCH":"2026-04-05T07:39:32.438016","MEAN_MOTION":14.97342996,"ECCENTRICITY":0.00173012,"INCLINATION":82.52,"RA_OF_ASC_NODE":211.8142,"ARG_OF_PERICENTER":208.1811,"MEAN_ANOMALY":151.8477,"EPHEMERIS_TYPE":0,"CLASSIFICATION_TYPE":"U","NORAD_CAT_ID":22286,"ELEMENT_SET_NO":999,"REV_AT_EPOCH":78004,"BSTAR":0.00031643441,"MEAN_MOTION_DOT":3.708e-5,"MEAN_MOTION_DDOT":0},{"OBJECT_NAME":"SL-16 R/B","OBJECT_ID":"1993-016B","EPOCH":"2026-04-05T03:25:11.787456","MEAN_MOTION":14.153092,"ECCENTRICITY":0.00124088,"INCLINATION":71.0072,"RA_OF_ASC_NODE":159.6266,"ARG_OF_PERICENTER":280.3758,"MEAN_ANOMALY":79.5966,"EPHEMERIS_TYPE":0,"CLASSIFICATION_TYPE":"U","NORAD_CAT_ID":22566,"ELEMENT_SET_NO":999,"REV_AT_EPOCH":70591,"BSTAR":0.00020511117,"MEAN_MOTION_DOT":3.52e-6,"MEAN_MOTION_DDOT":0},{"OBJECT_NAME":"COSMOS 2242","OBJECT_ID":"1993-024A","EPOCH":"2026-04-05T02:41:45.820032","MEAN_MOTION":14.96677614,"ECCENTRICITY":0.00155657,"INCLINATION":82.5179,"RA_OF_ASC_NODE":241.4358,"ARG_OF_PERICENTER":212.1552,"MEAN_ANOMALY":147.8722,"EPHEMERIS_TYPE":0,"CLASSIFICATION_TYPE":"U","NORAD_CAT_ID":22626,"ELEMENT_SET_NO":999,"REV_AT_EPOCH":78434,"BSTAR":0.00024797437,"MEAN_MOTION_DOT":2.861e-5,"MEAN_MOTION_DDOT":0}]
